[{"OBJECT_NAME":"STARLINK-35032","OBJECT_ID":"2025-191D","EPOCH":"2026-03-09T14:09:35.602560","MEAN_MOTION":15.05647823,"ECCENTRICITY":0.0001986,"INCLINATION":97.6027,"RA_OF_ASC_NODE":301.4143,"ARG_OF_PERICENTER":89.3469,"MEAN_ANOMALY":270.7985,"EPHEMERIS_TYPE":0,"CLASSIFICATION_TYPE":"U","NORAD_CAT_ID":65382,"ELEMENT_SET_NO":999,"REV_AT_EPOCH":3025,"BSTAR":0.0008083,"MEAN_MOTION_DOT":0.00011621,"MEAN_MOTION_DDOT":0},{"OBJECT_NAME":"VANGUARD 2","OBJECT_ID":"1959-001A","EPOCH":"2026-03-09T19:18:25.550496","MEAN_MOTION":11.90268048,"ECCENTRICITY":0.14456611,"INCLINATION":32.8708,"RA_OF_ASC_NODE":101.2249,"ARG_OF_PERICENTER":211.3482,"MEAN_ANOMALY":139.2428,"EPHEMERIS_TYPE":0,"CLASSIFICATION_TYPE":"U","NORAD_CAT_ID":11,"ELEMENT_SET_NO":999,"REV_AT_EPOCH":52362,"BSTAR":0.00053091218,"MEAN_MOTION_DOT":1.038e-5,"MEAN_MOTION_DDOT":0}]
